{"type":"FeatureCollection","crs":{"type":"name","properties":{"name":"EPSG:4326"}},"features":[{"type":"Feature","id":1,"geometry":{"type":"Polygon","coordinates":[[[0.0293975865836857,51.5532630690869],[0.0294083985300734,51.5532305081425],[0.0294217846859852,51.5532321288801],[0.0294314720907939,51.553204443466],[0.029513530148193,51.5532160171828],[0.0295483828039019,51.5532209352524],[0.0295913210451802,51.5532269992679],[0.0296275784916079,51.5532317509054],[0.0296773093066845,51.5532382674122],[0.0296815196532592,51.5532261739516],[0.0296928041081515,51.5531937657656],[0.0297772189782545,51.5529513308541],[0.0297929758728659,51.5529060782562],[0.0297911639865623,51.5529058155706],[0.0298116710323408,51.5528522056195],[0.0299100276246156,51.5528661604513],[0.0301293116940053,51.5528992328509],[0.0301346170559622,51.5528887993454],[0.0301622027486605,51.5528928179224],[0.0301598000978357,51.5529036507902],[0.0302004579792791,51.5529096911266],[0.0302299485491463,51.5528268970242],[0.0302505297644661,51.5527707857297],[0.0302595190286424,51.5527459000703],[0.0303771282697399,51.5527631972572],[0.0303981678312178,51.5527659802618],[0.0304242721146299,51.5527691251662],[0.0304830867857598,51.5527779983361],[0.0305251859422473,51.5527840135923],[0.030563764964716,51.5526785801722],[0.0305850463735018,51.5526220070459],[0.0306017631896539,51.5525763042467],[0.0306049664162251,51.5525672560413],[0.0306101515951558,51.5525541267797],[0.0306185399928448,51.5525319493121],[0.0306256070825526,51.5525124925481],[0.0306359374011474,51.5524853354446],[0.0306425199721013,51.5524679553973],[0.0306507137547419,51.5524459431671],[0.0306520534920092,51.5524423408571],[0.0306688702145803,51.552398884493],[0.0306784798165655,51.5523717398705],[0.0306849462325316,51.5523549913223],[0.0306965577599854,51.5523242149299],[0.0307062273523504,51.5522984181723],[0.0307088099099639,51.5522916288946],[0.0307139350086904,51.5522771517608],[0.0307255464983775,51.5522463753653],[0.0307314122594114,51.5522323350344],[0.0307422830549574,51.5522011218335],[0.0307474881633882,51.5521884418545],[0.0307596802209888,51.5521545079461],[0.0307655059454668,51.5521395690352],[0.0307764567280457,51.5521101529872],[0.0307848449698272,51.5520879755067],[0.0307918919178694,51.5520680694428],[0.0308048245826919,51.5520345723326],[0.0308087283880394,51.5520250623461],[0.0308240834896788,51.5519811816408],[0.0308433023371859,51.5519268923674],[0.0308522791209881,51.5519017370876],[0.0308625211409207,51.5518726030906],[0.0308638424095679,51.5518698823835],[0.0308798138832848,51.551830127638],[0.0308812347026208,51.5518264034174],[0.030887148921951,51.5518108946256],[0.0308920363019194,51.5517980780585],[0.0308986700512666,51.5517806854151],[0.0309035587862988,51.5517678670253],[0.0309092624273211,51.5517529095371],[0.0309160530934819,51.5517304899435],[0.0309231599601417,51.5517119317382],[0.0309411573724942,51.5516626096006],[0.0309452977658474,51.5516516117108],[0.0309617972591033,51.5516078460434],[0.0310038953948529,51.5516138611328],[0.031050738636399,51.5516208371397],[0.0310823064455907,51.5516255418781],[0.0311067429967825,51.551629147172],[0.0311723280665891,51.5516388199167],[0.0312137056008469,51.5516448474187],[0.031258726447708,51.5516517110406],[0.0312741210264674,51.5516087288539],[0.0313115506802947,51.5515102574284],[0.0313957724877142,51.5515225386934],[0.0314034396761084,51.5515003736578],[0.0314118943754333,51.5514777543299],[0.031437591535751,51.5514089553267],[0.031443376923313,51.5513931178035],[0.0314465398797949,51.5513831709964],[0.0314900991840333,51.5513896102213],[0.0315728739035506,51.5514021142772],[0.0315772178279235,51.5514024886223],[0.0316280437304882,51.5514101507559],[0.0316389937965497,51.5513807346268],[0.0316822534191228,51.551267126191],[0.0316849158415523,51.5512621340473],[0.031686116949013,51.5512567175972],[0.0317699930055475,51.5511320632695],[0.0317841859063149,51.5510944973862],[0.0318085480070372,51.5510261799224],[0.0318973479761233,51.5507854337527],[0.0319203085084248,51.5507180398298],[0.0318521676691345,51.550710228735],[0.0317869294417634,51.5507028169057],[0.0317738777953929,51.5507012446777],[0.0317042558036067,51.5506925597418],[0.0316237443323309,51.5506822647448],[0.0315403303211957,51.5506715703648],[0.0315330838920822,51.5506707966904],[0.031488124015057,51.5506652810363],[0.0314453460814085,51.5506601771846],[0.0314040294494214,51.5506554976272],[0.0313554263778093,51.5506491457918],[0.0313314851667599,51.5506459636218],[0.0312720324957847,51.5506389005095],[0.0312016701941521,51.5506297782464],[0.0311262634429382,51.5506207433559],[0.0311233608749989,51.5506203440181],[0.0310479341441622,51.5506108597881],[0.0309964486080342,51.5506045577527],[0.030976871295761,51.5506021991662],[0.0309529501416797,51.550599466208],[0.0309072497513738,51.5505935135282],[0.0308782441165902,51.5505899693817],[0.0308318231056071,51.5505840291588],[0.030755655844476,51.550574107937],[0.0306983652639956,51.5505670070764],[0.0306853137422832,51.5505654346525],[0.0306142110169759,51.5505558752318],[0.0305496740845522,51.5505480005665],[0.0304894610044035,51.5505400509621],[0.0304785714123586,51.5505384410634],[0.0304111119663286,51.5505297176784],[0.0303291397687745,51.5505189974677],[0.0302754525084055,51.5505118339851],[0.0302529527160497,51.5505086266258],[0.0302021480486291,51.5505014131452],[0.0301629736008006,51.550496246389],[0.0300737151697905,51.5504838536022],[0.0299815742341309,51.5504715106713],[0.0298944978052889,51.5504595295978],[0.0298183309606837,51.5504496077201],[0.0297312546122693,51.550437626526],[0.0296659573767249,51.550428865234],[0.0296586910217933,51.5504276421485],[0.0295861074678015,51.5504172084348],[0.0295048163239993,51.5504055765375],[0.0294482067992433,51.5503975639724],[0.0293959411052602,51.5503899258082],[0.0293843309514704,51.5503883282778],[0.0293001173778059,51.5503758475651],[0.0292180657570902,51.5503633293638],[0.0291316703730126,51.5503504366678],[0.0290569051541922,51.550339590764],[0.029042392491441,51.5503375938091],[0.028944515215072,51.5503227414827],[0.0289175036931076,51.550318622757],[0.0288434592081328,51.5503077642436],[0.0287715766632506,51.5502968682633],[0.0287585052962946,51.5502948463266],[0.0286974922751155,51.5502851110751],[0.0286321354831399,51.5502750013361],[0.0285348309737531,51.5502600488335],[0.0284469347431845,51.5502458327054],[0.0283605197976428,51.5502324901532],[0.0283525328714148,51.5502312794583],[0.0281128053973071,51.5501922626073],[0.028018343798477,51.5501763612179],[0.0279398760476537,51.5501633304921],[0.0279006421883385,51.5501568151097],[0.0278504989522719,51.5501482402733],[0.0277611219135291,51.5501331499869],[0.0276760887055518,51.5501184341242],[0.0276710043233794,51.5501176228078],[0.0275947366905488,51.5503325198777],[0.0275658833903063,51.5504135040676],[0.0275408544809838,51.5504831811609],[0.0275280196465718,51.5505189244824],[0.0275198607497216,51.550540093265],[0.0275185972755775,51.5505433713802],[0.0275594699237613,51.5507039899397],[0.0275594256708889,51.5507062388822],[0.0275613024138088,51.5507160084692],[0.0275613104038677,51.5507161881851],[0.0275685331219757,51.5507553613769],[0.0275721544736417,51.5507751726175],[0.0275739539645591,51.5507848266354],[0.0275818377948098,51.550827189794],[0.0275873163073157,51.5508566540542],[0.0275879005080472,51.5508600611773],[0.0276033545425243,51.5509513575937],[0.0276064868079661,51.5509699003291],[0.0276942258925842,51.5509643358076],[0.0277040939837007,51.5509637334449],[0.027796357902157,51.5509580725837],[0.0278726065554962,51.5509536059863],[0.0279471737037645,51.5509489526068],[0.0279524384437721,51.5509486277079],[0.0280042250600749,51.5509454835261],[0.0280138731742115,51.5509516114894],[0.0280770861650435,51.5509945820245],[0.0281455036548745,51.5510410595557],[0.0282057144101695,51.5510813841599],[0.0282198463234602,51.5510910316038],[0.0282949297858736,51.5511414404229],[0.0282980509007598,51.5511629689156],[0.0282992913545447,51.5511714005967],[0.0283022723405187,51.5511930214413],[0.0283102556324358,51.5512427928295],[0.0283228600712854,51.551331602534],[0.0283299788825337,51.5513781515048],[0.0283351048657192,51.5514123250221],[0.0283433280382117,51.5514674878817],[0.0283443684258915,51.5514746640451],[0.0285389327204766,51.5514862608506],[0.0287069435366239,51.5514962665849],[0.0288180158064911,51.5515028871775],[0.0289062354697169,51.5515081046951],[0.0289525172661386,51.5515109006502],[0.02899663710432,51.5515137340114],[0.0291643886863786,51.5515234198426],[0.0294804143714575,51.5515426783964],[0.029531040154892,51.5515458485455],[0.0295429217700324,51.5515139974621],[0.0296014360229026,51.5515223187057],[0.0296826098993941,51.5515338626136],[0.029669095046354,51.5515708228762],[0.0297286979747735,51.5515792960674],[0.029783565841594,51.5515873566269],[0.0297670880079534,51.5516319580607],[0.0299585322307019,51.5516576891418],[0.0300261245684764,51.5516667702139],[0.0301212105846532,51.5516804109813],[0.0301626080301587,51.5516868881437],[0.0301515286408361,51.5517159817228],[0.0301463303771952,51.5517288180295],[0.0301394201455989,51.5517459681158],[0.030134272281444,51.5517588026495],[0.0301282534164389,51.5517738132177],[0.0301179429452011,51.5518014195693],[0.029858927969622,51.551766787089],[0.0294592725019949,51.551744373283],[0.029457161382863,51.5517442569593],[0.0289751429903325,51.5517438698302],[0.0283790224003528,51.5517024791634],[0.0283822035520501,51.5517253555204],[0.0283923877510131,51.551792174961],[0.0283995506826402,51.5518397123607],[0.0284051524038347,51.5518845789644],[0.0284130560114913,51.5519325531809],[0.0284162371993459,51.5519554295361],[0.0284194183907092,51.551978305891],[0.028422559616558,51.5520002836667],[0.0284264015238822,51.5520217996813],[0.0284296027104516,51.5520451253253],[0.028433544548696,51.5520688877873],[0.0284402279402197,51.5521056422324],[0.028444229744461,51.5521307525625],[0.0284482115686099,51.5521554136028],[0.0284513728076857,51.5521778406665],[0.0284523732616744,51.5521841182489],[0.0284553746254424,51.5522029509959],[0.0284593164929059,51.5522267134563],[0.0284613174058646,51.5522392686208],[0.028456131642024,51.5522523977903],[0.028439432772465,51.5522985495833],[0.028393390018358,51.5523011449039],[0.0283675059547748,51.5523029417309],[0.0283567159316238,51.5523035780847],[0.0283200218569812,51.5523055619646],[0.0282926964531058,51.5523073837165],[0.0282854485481563,51.552322796738],[0.028270030952824,51.5523653292496],[0.0282545533805073,51.5524065138901],[0.0281761453133648,51.55241404861],[0.028105421603176,51.5524208478072],[0.0280618018760094,51.5525136069132],[0.0280493236467289,51.5525405041729],[0.0280279473744468,51.5525979327464],[0.0280180418769202,51.552619854788],[0.0283637225505576,51.5526686506923],[0.0283915332661582,51.5526725461853],[0.0283920543865044,51.5526726199003],[0.028380777953917,51.5527026645306],[0.0283588869982968,51.5527609995462],[0.0283910900877031,51.5528007296097],[0.0284216158159923,51.5528384203691],[0.0284544435214974,51.5528792187321],[0.0284628705972688,51.5528903137824],[0.0284727829985527,51.5529023723257],[0.0284842286929946,51.5529164726564],[0.0284956783917431,51.5529306628437],[0.0285185778107803,51.5529590432149],[0.028549844416441,51.5529971707567],[0.0285506450402784,51.5529989554425],[0.0286119203683133,51.5530307183698],[0.0286141423650535,51.5530320288206],[0.028674697102035,51.5530638041871],[0.0286776597688995,51.5530655514532],[0.0286998198136079,51.5530773080781],[0.0287345112549274,51.5530951427058],[0.0287374739260881,51.5530968899703],[0.0287972881647926,51.5531282284564],[0.0288342216802474,51.5531478227907],[0.0288600651649884,51.553161314173],[0.0289250642690447,51.5531957103002],[0.0289954700900813,51.5532057324908],[0.0290252379164908,51.5532101631993],[0.0291014292218659,51.5532205348147],[0.0291769398645451,51.5532318174351],[0.0292582159952647,51.5532430001947],[0.0293315446715746,51.5532538708554],[0.0293975865836857,51.5532630690869]]]},"properties":{"FID":1,"SHAPE_Leng":1448.39448289,"SHAPE_Area":57707.9286503,"Name":"H1 - Woodgrange and Godwin Permit Area","Shape__Area":149062.34138870239,"Shape__Length":2327.5083561213005}},{"type":"Feature","id":2,"geometry":{"type":"Polygon","coordinates":[[[-0.00658233059666908,51.548122945829],[-0.00663259174067701,51.5481596625614],[-0.00696385953370053,51.5484017077471],[-0.00702067621795779,51.5484432208592],[-0.00724312237230643,51.5486057379724],[-0.00734190890231789,51.5485552221445],[-0.00754680950198459,51.5484465719598],[-0.00753163279829103,51.5484354240947],[-0.0076012519799177,51.548398504281],[-0.00761980967046883,51.5484078660472],[-0.00776778843533414,51.5483293995596],[-0.00793367681533945,51.5483826597002],[-0.00793297285404438,51.548409109634],[-0.00792516209985204,51.5484132485506],[-0.00795221910911169,51.5484330871648],[-0.00750222268432872,51.5486721337891],[-0.00747137618256702,51.5486538583959],[-0.00722293942348172,51.5487860582757],[-0.0070876163654125,51.5489956815279],[-0.00708518823488284,51.5490062246779],[-0.00708280988419338,51.5490165528489],[-0.00708352659934484,51.5490166549493],[-0.00708769061599884,51.5490170853836],[-0.00709199483409637,51.5490176081259],[-0.00709615492384427,51.5490181284199],[-0.00710045914214244,51.5490186511619],[-0.00710461530502465,51.5490192613159],[-0.00710891559647756,51.5490198739177],[-0.00711307175959105,51.5490204840713],[-0.00711722399577756,51.549021184085],[-0.00712137623209363,51.5490218840986],[-0.00712552846854084,51.549022584112],[-0.00712967677810191,51.5490233739854],[-0.00713382508780942,51.5490241638587],[-0.00713797339766258,51.5490249537318],[-0.00714211778067001,51.549025833465],[-0.00714626216383959,51.549026713198],[-0.00715026241867109,51.5490275904829],[-0.00715440287519318,51.5490285600758],[-0.00715840313036011,51.5490294373604],[-0.00716239945873038,51.549030404505],[-0.00716639186032635,51.5490314615098],[-0.00717038426209447,51.5490325185143],[-0.00717437666406297,51.5490335755188],[-0.00717836906621635,51.5490346325231],[-0.00718221341311485,51.5490357769395],[-0.00718620188873769,51.5490369238037],[-0.00719004623602716,51.5490380682199],[-0.00719403471204882,51.5490392150838],[-0.00719787513285697,51.5490404493599],[-0.00720171555385923,51.5490416836359],[-0.00720540791966173,51.549043005324],[-0.00720924834109633,51.5490442395997],[-0.00721308483587147,51.5490455637355],[-0.00721677327548112,51.5490469752834],[-0.00722046564214636,51.5490482969711],[-0.00722415408219114,51.5490497085188],[-0.00722784252246278,51.5490511200664],[-0.00723152703614261,51.5490526214741],[-0.00723507134830083,51.5490540305736],[-0.0072387558624636,51.5490555319811],[-0.00724229232146995,51.5490571208007],[-0.00724583270751362,51.5490586197601],[-0.00724936916700235,51.5490602085795],[-0.00725276149812037,51.549061794951],[-0.00725629795809344,51.5490633837703],[-0.00725968636293183,51.5490650600018],[-0.00726307476801589,51.5490667362332],[-0.00726646317334882,51.5490684124645],[-0.00726985157892823,51.5490700886957],[-0.00727309192936491,51.5490718523392],[-0.00727647640870255,51.5490736184304],[-0.00727971675964083,51.5490753820737],[-0.00728295711084027,51.5490771457169],[-0.00728604940689893,51.5490789967724],[-0.0072892858318829,51.5490808502756],[-0.00729237812844434,51.5490827013309],[-0.00729547042525262,51.5490845523862],[-0.00729855879561505,51.5490864933016],[-0.00730150303756194,51.5490884317691],[-0.00730459140843694,51.5490903726843],[-0.00730753565086991,51.5490923111517],[-0.00731047989355055,51.549094249619],[-0.00731327608109564,51.5490962754986],[-0.00731621639760748,51.5490983038259],[-0.00731901258564864,51.5491003297054],[-0.00732180484726965,51.549102445445],[-0.0073246010358057,51.5491044713244],[-0.00732724916919797,51.5491065846161],[-0.00732989730281728,51.5491086979078],[-0.00733254543669187,51.5491108111994],[-0.00733518964416629,51.5491130143512],[-0.00733769364975386,51.5491151251949],[-0.00734019372893656,51.5491173258988],[-0.00734269380835629,51.5491195266026],[-0.00734518996141661,51.5491218171666],[-0.00734754591251125,51.5491240154226],[-0.00735004206603841,51.5491263059865],[-0.00735225388877065,51.5491285017947],[-0.00735460591394483,51.5491307899108],[-0.00735680988392966,51.5491331654393],[-0.007359017780723,51.5491354511075],[-0.00736122567771984,51.5491377367757],[-0.00736342964837021,51.5491401123041],[-0.0073654894903819,51.5491424853847],[-0.00736754933260274,51.5491448584653],[-0.00736946504614117,51.5491472290981],[-0.00737152488875974,51.5491496021787],[-0.00737343667614947,51.5491520626716],[-0.00737520433482537,51.5491545207168],[-0.00737712004914742,51.5491568913495],[-0.00737888770819805,51.5491593493947],[-0.0073806553674482,51.5491618074399],[-0.00738241910032757,51.5491643553452],[-0.00738404263099729,51.5491668109426],[-0.00738566616182221,51.54916926654],[-0.00738728576629671,51.5491718119975],[-0.00738876124198259,51.5491743550074],[-0.00739024064435532,51.549176808157],[-0.00739171612034275,51.5491793511668],[-0.00739318766997896,51.5491819840368],[-0.00739451901729035,51.5491845245989],[-0.00739585036475847,51.549187065161],[-0.00739703758334319,51.5491896032753],[-0.00739836500456016,51.5491922336976],[-0.00739954829689588,51.5491948616721],[-0.00740059138683512,51.5491973973388],[-0.00740177467942192,51.5492000253133],[-0.00740281384308506,51.5492026508402],[-0.00740370887780062,51.5492052739193],[-0.00740474804168384,51.5492078994462],[-0.00740564307660338,51.5492105225253],[-0.00740653811160549,51.5492131456045],[-0.00740728509112398,51.5492158560961],[-0.00740803599721182,51.5492184767276],[-0.00740878690339437,51.549221097359],[-0.007409389754025,51.549223805403],[-0.00741014066035014,51.5492264260344],[-0.00741074351113509,51.5492291340784],[-0.00741120223281433,51.5492318396747],[-0.0074116648810519,51.5492344554108],[-0.00741212360284186,51.5492371610071],[-0.00741258232468241,51.5492398666033],[-0.00741289691739247,51.549242569752],[-0.00741321543662929,51.5492451830404],[-0.0074133859001937,51.5492478837413],[-0.00741370049299268,51.5492505868899],[-0.00741387095659701,51.5492532875909],[-0.00741387571573041,51.549254168955],[-0.00744255479708995,51.5492543862121],[-0.007438123094002,51.549305964945],[-0.00740803747049492,51.5493042669848],[-0.00740734315759883,51.5493069529996],[-0.00740650864171886,51.5493095467066],[-0.00740552606983986,51.549312227826],[-0.00740469155376804,51.549314821533],[-0.00740370898165054,51.5493175026525],[-0.00740273033595209,51.5493200939117],[-0.00740175169012705,51.5493226851709],[-0.00740062498823546,51.5493253638427],[-0.00739950221272846,51.5493279526542],[-0.00739823530763806,51.549330539018],[-0.00739711253186409,51.5493331278295],[-0.00739584562649141,51.5493357141932],[-0.00739443851803945,51.5493382082491],[-0.00739317161236996,51.5493407946129],[-0.00739176057706213,51.5493433785289],[-0.00739020933864679,51.549345870137],[-0.00738879830301194,51.549348454053],[-0.00738724706424547,51.549350945661],[-0.00738569582532214,51.5493534372691],[-0.00738400045668376,51.5493559264294],[-0.00738230508787363,51.5493584155896],[-0.0073806097188639,51.5493609047498],[-0.0073789143496677,51.5493633939101],[-0.00737707877730632,51.5493657907623],[-0.00737523927817993,51.5493682774748],[-0.00737340370542756,51.549370674327],[-0.00737142400289912,51.5493730687314],[-0.00736944037355274,51.549375552996],[-0.00736746459720577,51.5493778575402],[-0.00736534076444866,51.5493802494968],[-0.00736336106108177,51.5493826439011],[-0.00736124115448791,51.5493849459974],[-0.00735897319144996,51.5493873355061],[-0.00735685328443116,51.5493896376023],[-0.00735458924754588,51.5493919372508],[-0.00735232521043173,51.5493942368992],[-0.00734992097007514,51.5493964442396],[-0.00734751280285698,51.5493987414401],[-0.00734510856203133,51.5494009487804],[-0.00734270432097528,51.5494031561206],[-0.00734015595000619,51.549405361013],[-0.00733775170848031,51.5494075683531],[-0.00733505920733365,51.5494097707977],[-0.0073325147623047,51.5494118858297],[-0.00732982618732135,51.5494139984139],[-0.00732713761210386,51.5494161109981],[-0.00732444903663868,51.5494182235821],[-0.0073217604609143,51.5494203361661],[-0.00731893168192489,51.5494223564421],[-0.0073164266635067,51.5494242293408],[-0.00731609897596644,51.5494244665781],[-0.00731327019647583,51.5494264868539],[-0.00731044534344252,51.5494284172695],[-0.00730747243369099,51.5494304350973],[-0.00730450345042459,51.5494323630649],[-0.00730153054015891,51.5494343808926],[-0.00729841742660216,51.5494363064122],[-0.00729545236931621,51.5494381445194],[-0.00729233925525277,51.5494400700388],[-0.00728923006769196,51.549441905698],[-0.00728597675008905,51.5494437389092],[-0.00728286756201549,51.5494455745682],[-0.00727961424390158,51.5494474077792],[-0.00727636485231776,51.54944915113],[-0.00727311546049102,51.5494508944807],[-0.00726972193858316,51.5494526353834],[-0.00726647254625993,51.5494543787339],[-0.0072630829506616,51.5494560297763],[-0.00725969335483663,51.5494576808185],[-0.00725615962891365,51.5494593294128],[-0.00725277003260084,51.5494609804548],[-0.00724924023302392,51.5494625391887],[-0.00724571043321076,51.5494640979224],[-0.00724218063316016,51.5494656566561],[-0.00723865475973781,51.5494671255294],[-0.0072349808293508,51.549468681815],[-0.00723145495548476,51.5494701506881],[-0.00722778495150427,51.5494716171132],[-0.00722411887418658,51.5494729936781],[-0.00722045279665266,51.5494743702427],[-0.0072166425889988,51.5494757443594],[-0.00721297651102731,51.5494771209239],[-0.00720917022986414,51.5494784051801],[-0.00720536002156175,51.5494797792964],[-0.0072015576669111,51.5494809736922],[-0.00719775138512084,51.5494822579481],[-0.00719394903006191,51.5494834523436],[-0.00719000254490575,51.5494846442911],[-0.00718605605953635,51.5494858362384],[-0.00718225763087789,51.5494869407734],[-0.00717831114513076,51.5494881327205],[-0.00717437251315453,51.5494891449471],[-0.00717028582407708,51.5494902445857],[-0.00716634719176474,51.549491256812],[-0.0071622644293317,51.5494922665902],[-0.00715832579667759,51.5494932788163],[-0.00715424696092979,51.549494198734],[-0.00715016812502268,51.5494951186516],[-0.00714608928897056,51.5494960385691],[-0.00714201437980128,51.5494968686262],[-0.00713793947049036,51.5494976986831],[-0.00713386456103543,51.54949852874],[-0.00712964552148199,51.5494993563487],[-0.007125574538842,51.5495000965451],[-0.00712135942610136,51.5495008342933],[-0.00711714824033557,51.5495014821812],[-0.00711293312734147,51.5495022199291],[-0.00710872194133951,51.5495028678166],[-0.00710451468235242,51.5495034258439],[-0.00710030349612958,51.5495040737312],[-0.00709609623694008,51.5495046317582],[-0.00709189290480825,51.5495050999248],[-0.00708768564543123,51.5495056579515],[-0.00708333818315462,51.5495061236697],[-0.00707913877794947,51.5495065019758],[-0.00707479131551677,51.5495069676937],[-0.00707059191017316,51.5495073459994],[-0.00706624837478837,51.5495077218568],[-0.0070659589366599,51.5495077439187],[-0.00706205289652839,51.5495080103021],[-0.00705771328822902,51.5495082962991],[-0.00705337367989296,51.5495085822959],[-0.0070490340715087,51.5495088682926],[-0.00704484252030105,51.5495090668771],[-0.00704050683908283,51.5495092630133],[-0.00703617508509616,51.5495093692891],[-0.00703184333107953,51.5495094755648],[-0.00702751157706155,51.5495095818404],[-0.00702317982302912,51.5495096881158],[-0.00701885199627807,51.5495097045309],[-0.00701452416952864,51.5495097209458],[-0.00701019634276691,51.5495097373605],[-0.00700587244334327,51.549509663915],[-0.00700154854393773,51.5495095904693],[-0.00699722857189011,51.5495094271633],[-0.00699290467252941,51.5495093537173],[-0.00698858862788709,51.5495091005508],[-0.00698426865594441,51.5495089372443],[-0.00697995261141029,51.5495086840775],[-0.00697578069689937,51.5495084333588],[-0.00697146465246817,51.5495081801916],[-0.00696715253548554,51.5495078371642],[-0.00696284041855893,51.5495074941367],[-0.00695852830171418,51.5495071511089],[-0.00695422011236038,51.5495067182209],[-0.0069500560530549,51.549506287781],[-0.00694574786386957,51.5495058548927],[-0.0069414436022176,51.549505332144],[-0.00693727954316735,51.5495049017036],[-0.0069329792091732,51.5495042890945],[-0.00692881907777645,51.5495037687937],[-0.00692451874399415,51.5495031561843],[-0.00692036254029212,51.5495025460231],[-0.00691621026419916,51.5495018460015],[-0.00691205798824927,51.5495011459798],[-0.00690790571241662,51.549500445958],[-0.00690375343671313,51.549499745936],[-0.00689960508866779,51.5494989560538],[-0.00689545674076811,51.5494981661713],[-0.00689131232055796,51.5494972864286],[-0.00688716790051035,51.5494964066858],[-0.00688316761054672,51.5494955293912],[-0.00687902319081826,51.549494649648],[-0.00687502682874319,51.549493682493],[-0.0068710304668524,51.5494927153378],[-0.00686688997520837,51.5494917457342],[-0.00686289361365032,51.5494907785787],[-0.00685890117986734,51.5494897215629],[-0.0068550568037956,51.5494885771353],[-0.00685106437038947,51.5494875201193],[-0.00684707586479649,51.5494863732431],[-0.00684323148930531,51.5494852288151],[-0.00683938711399572,51.549484084387],[-0.00683540253666237,51.5494828476502],[-0.00683156208940811,51.5494816133617],[-0.00682786577224583,51.5494803815215],[-0.00682402925307476,51.5494790573726],[-0.00682019273414017,51.5494777332236],[-0.0068165003452856,51.5494764115229],[-0.0068126638267771,51.5494750873736],[-0.00680897536605478,51.5494736758126],[-0.0068052869055609,51.5494722642514],[-0.00680174257513212,51.5494708551385],[-0.00679805804280972,51.549469353717],[-0.0067943735107152,51.5494678522954],[-0.00679083310869849,51.5494663533221],[-0.00678729270691376,51.5494648543487],[-0.00678375623310935,51.549463265515],[-0.00678021975954986,51.5494616766813],[-0.00677682741605171,51.5494600902959],[-0.00677329094297616,51.5494585014619],[-0.00676990252771287,51.5494568252163],[-0.00676651411269725,51.5494551489705],[-0.00676312569792691,51.5494534727246],[-0.00675988534098705,51.549451709067],[-0.00675649692671283,51.5494500328209],[-0.00675325657025555,51.5494482691631],[-0.00675002014187216,51.5494464156451],[-0.00674677978591685,51.5494446519871],[-0.00674368748779358,51.5494428009174],[-0.00674059518991834,51.5494409498477],[-0.00673735876254462,51.5494390963294],[-0.0067160984192626,51.5494539417829],[-0.00666265923102028,51.5494136729376],[-0.00668734327452575,51.5494020061198],[-0.00668498734141806,51.549399807851],[-0.00668263533646877,51.549397519722],[-0.00668027940380962,51.5493953214532],[-0.0066779273993183,51.5493930333241],[-0.00667557539505931,51.5493907451951],[-0.0066733675206008,51.5493884595146],[-0.0066711635743152,51.5493860839739],[-0.00666909982986295,51.5493838007419],[-0.00666689588401531,51.5493814252012],[-0.00666483606793281,51.549379052109],[-0.00666292038160502,51.5493766814654],[-0.00666086449390851,51.549374218513],[-0.006658948807981,51.5493718478693],[-0.00665703312224693,51.5493694772256],[-0.00665512136467892,51.5493670167217],[-0.00665335373682011,51.5493645586664],[-0.00665158610914571,51.5493621006111],[-0.00664981848165732,51.5493596425558],[-0.00664819498382376,51.549357186949],[-0.00664643128469857,51.5493546390335],[-0.00664495191667054,51.5493521858754],[-0.00664333234735438,51.5493496404085],[-0.00664185690766696,51.5493470973901],[-0.00664038146812452,51.5493445543718],[-0.006638906028741,51.5493420113535],[-0.00663757471894419,51.5493394707837],[-0.00663624340929139,51.549336930214],[-0.00663491209976709,51.5493343896442],[-0.00663372884781247,51.549331761663],[-0.00663239753858143,51.5493292210932],[-0.00663135841626825,51.5493265955605],[-0.006630175164704,51.5493239675793],[-0.00662913604262699,51.5493213420466],[-0.00662809692066493,51.5493187165139],[-0.00662705779881584,51.5493160909812],[-0.00662616280641515,51.5493134678972],[-0.00662526781411056,51.5493108448131],[-0.00662451695123373,51.5493082241777],[-0.00662362195911584,51.5493056010936],[-0.00662287502444949,51.5493028905981],[-0.00662226829111472,51.5493002724113],[-0.00662152135659174,51.5492975619157],[-0.0066209146233962,51.5492949437289],[-0.00662045594757429,51.5492922381306],[-0.00661985314254488,51.5492895300837],[-0.00661939053878545,51.5492869143456],[-0.00661907599235961,51.5492842111959],[-0.00661861731673411,51.5492815055977],[-0.00661830277039467,51.549278802448],[-0.00661798822407424,51.5492760992984],[-0.00661781387894846,51.5492734884575],[-0.00661764346189638,51.5492707877565],[-0.00661747304484484,51.5492680870555],[-0.00661730262782405,51.5492653863545],[-0.00661727633999063,51.5492626881022],[-0.00661739418132065,51.5492599922985],[-0.0066173678934642,51.5492572940461],[-0.00661748573476585,51.5492545982424],[-0.00661760357605018,51.5492519024387],[-0.00661786554646044,51.5492492090836],[-0.00661798338770032,51.5492465132799],[-0.00661824535803533,51.5492438199248],[-0.00661865145744156,51.5492411290184],[-0.00661905755680984,51.549238438112],[-0.00661946365611195,51.5492357472055],[-0.00661986975537689,51.5492330562991],[-0.00662041998366242,51.5492303678413],[-0.00662096628383336,51.5492277692436],[-0.00662166064103933,51.5492250832344],[-0.00662221086911197,51.5492223947766],[-0.00662290522615653,51.5492197087674],[-0.00662373978412105,51.549217115067],[-0.0066244341409881,51.5492144290578],[-0.00662526869876335,51.5492118353573],[-0.0066262513134814,51.5492091542453],[-0.00662708587105049,51.5492065605449],[-0.00662806848552925,51.5492038794329],[-0.00662919130087203,51.5492012906296],[-0.00663016998709661,51.5491986993778],[-0.00663129280218772,51.5491961105745],[-0.00663241954515489,51.5491934319111],[-0.0066336864889349,51.5491908455564],[-0.00663495343256846,51.5491882592017],[-0.00663621644806018,51.5491857627072],[-0.00663762752033202,51.549183178801],[-0.00663889446352352,51.5491805924463],[-0.0066404457364045,51.5491781008489],[-0.00664185680819504,51.5491755169427],[-0.0066434080807523,51.5491730253452],[-0.00664495935312409,51.5491705337477],[-0.00664651455330052,51.5491679522901],[-0.00664820995421423,51.5491654631412],[-0.00664990142697473,51.5491630638523],[-0.00665159682750671,51.5491605747033],[-0.00665343635671685,51.5491580880029],[-0.00665512782892738,51.549155688714],[-0.00665711148658036,51.5491532044621],[-0.00665894708724317,51.5491508076216],[-0.00666092681653176,51.5491484132298],[-0.00666290654561309,51.5491460188379],[-0.00666488627448558,51.549143624446],[-0.00666701013196405,51.5491412325025],[-0.00666913006127853,51.5491389304193],[-0.00667125391830147,51.5491365384758],[-0.00667351797597581,51.5491342388409],[-0.00667563790463791,51.5491319367575],[-0.00667790196186398,51.5491296371225],[-0.00668031014761813,51.5491273399361],[-0.00668257027647025,51.5491251301612],[-0.00668497846175338,51.5491228329747],[-0.00668738271890727,51.5491206256482],[-0.00668993110455825,51.5491184207703],[-0.00669247948996469,51.5491162158923],[-0.00669502787512661,51.5491140110142],[-0.00669757233217538,51.5491118959962],[-0.00670012071685334,51.5491096911179],[-0.00670280930213916,51.5491075785483],[-0.00670549788716418,51.5491054659786],[-0.00670818254409689,51.549103443269],[-0.00671101525732482,51.5491013331477],[-0.00671384404244574,51.5490993128865],[-0.00671667282733053,51.5490972926252],[-0.00671950161196886,51.5490952723638],[-0.00672247452499854,51.5490932545509],[-0.00672544743778192,51.5490912367378],[-0.00672841642250007,51.5490893087849],[-0.00673138540697017,51.5490873808318],[-0.00673435439119222,51.5490854528786],[-0.00673746357600553,51.549083617234],[-0.00674057668835066,51.5490816917292],[-0.00674368587266277,51.5490798560844],[-0.00674693918533661,51.549078022888],[-0.0067501924977518,51.5490761896915],[-0.00675329775355954,51.5490744439066],[-0.00675669126632991,51.5490727030185],[-0.00675994065024386,51.5490709596819],[-0.0067631900339149,51.5490692163451],[-0.00676658354593056,51.5490674754567],[-0.00676997312995739,51.5490658244284],[-0.00677336271375677,51.5490641733999],[-0.00677689642587747,51.5490625248198],[-0.00678028208147609,51.5490609636513],[-0.00678381186541348,51.5490594049311],[-0.00678734164911581,51.5490578462107],[-0.00679087143257991,51.5490562874903],[-0.00679454141667574,51.5490548210783],[-0.00679807119965538,51.5490532623576],[-0.00680174118328578,51.5490517959454],[-0.00680540723903586,51.5490504193932],[-0.00680907722221141,51.5490489529808],[-0.00681274327752158,51.5490475764283],[-0.00681654953351666,51.5490462921843],[-0.00682035971690759,51.5490449180799],[-0.00682402184395443,51.5490436313873],[-0.00682782809930418,51.5490423471429],[-0.00683163435444477,51.5490410628983],[-0.00683558081029698,51.5490398709621],[-0.00683938706502198,51.5490385867173],[-0.00684332959288152,51.549037484641],[-0.00684727604813292,51.5490362927045],[-0.00685107444712954,51.5490351881796],[-0.00685501697444183,51.5490340861028],[-0.00685910363003175,51.5490329864743],[-0.00686304222943552,51.5490319742575],[-0.00686698082865587,51.5490309620405],[-0.00687106355618992,51.5490299522718],[-0.00687514628354738,51.5490289425028],[-0.00687776808853185,51.5490283575514],[-0.00683635448786071,51.5489984098352],[-0.00682804973480109,51.5489923965349],[-0.00670971041843561,51.5489067991766],[-0.00648744964840935,51.5490257822655],[-0.00651026022311384,51.5490685163805],[-0.00646795847968324,51.5490912236072],[-0.00641354468194339,51.5490653443739],[-0.00628618925418446,51.5491335301932],[-0.00622793955268078,51.5491647072324],[-0.00613942037625175,51.5491004161026],[-0.00612007253797168,51.5490863644794],[-0.00602914930701787,51.5490203238041],[-0.00614241550351595,51.5489596685226],[-0.00614897273745892,51.5489561648916],[-0.00615281279228235,51.5489541078725],[-0.00619784300525754,51.5489300262793],[-0.00629000176560314,51.5488807116601],[-0.00626942980168795,51.5488441845243],[-0.00626620421976167,51.5488384553298],[-0.00627291800329603,51.5488349993152],[-0.00630961627178893,51.5488160817844],[-0.00637424454884828,51.5488356239173],[-0.00650825865534702,51.5487639000943],[-0.00649594244219966,51.5487549589414],[-0.00626543632752324,51.5485874743981],[-0.00627156570873454,51.5485841883066],[-0.00622488903234496,51.5485502661062],[-0.00633407533926534,51.5484918434262],[-0.00634346792125877,51.5484888393934],[-0.00630972041030634,51.5484646493752],[-0.00620741942473311,51.5483913202801],[-0.00617665216217133,51.5483692689682],[-0.00619763370715282,51.5483469369552],[-0.0064278412559532,51.5482051400718],[-0.00658233059666908,51.548122945829]]]},"properties":{"FID":2,"SHAPE_Leng":642.016655782,"SHAPE_Area":8503.74013815,"Name":"H2 - Chobham Permit Area","Shape__Area":21963.706395626068,"Shape__Length":1031.8395799359303}},{"type":"Feature","id":3,"geometry":{"type":"Polygon","coordinates":[[[0.0104777605170806,51.5362075691794],[0.0105210100865057,51.53624010044],[0.0105213601526113,51.5362454271207],[0.0105241488939599,51.5362884274556],[0.0105276020540361,51.53634061595],[0.010530375058841,51.536383913314],[0.0105321946955645,51.5364121192547],[0.0105766829577078,51.5364073094466],[0.0105847361245056,51.5364231783611],[0.0105893184843521,51.5364322723391],[0.0106060566189646,51.5364652583098],[0.0106278569268125,51.5365084091512],[0.0106493374264931,51.5365508460565],[0.0107250220323541,51.5365504470684],[0.0107394778392763,51.5365349114643],[0.0108668824377162,51.5365138411757],[0.0108840935045246,51.5365117473721],[0.010893419465254,51.5365106881102],[0.0109014356006628,51.5365289856743],[0.0109299645573713,51.5365284962454],[0.0109770805599082,51.536527687931],[0.0110181053589914,51.5365260848284],[0.0111617191069933,51.5365227215748],[0.0111564128669348,51.5365044045108],[0.0111528760361325,51.5364922081112],[0.0115444897179083,51.5364296435073],[0.0115363067278028,51.5364098560564],[0.0115301251127506,51.5363949083166],[0.0115188229848045,51.5363674946042],[0.0115122143220247,51.5363516908903],[0.0114976977590303,51.5363167784486],[0.011455886405643,51.5363234311438],[0.0114349013933896,51.5362726226439],[0.0114316750671671,51.5362648543369],[0.0114171348262007,51.5362294027283],[0.0114137485766147,51.5362212774562],[0.0113992242086824,51.5361861852819],[0.0113956819975369,51.5361777929037],[0.0113813136256462,51.5361429678321],[0.0113777555766807,51.5361342160161],[0.0113635471613297,51.5360997479065],[0.0113598291906037,51.5360906391251],[0.0113456326860256,51.5360564405906],[0.0113417627162813,51.5360471545624],[0.0113196386612103,51.5359933979873],[0.0111815313227849,51.5360365946663],[0.0110684177828206,51.536054722302],[0.0109799282225291,51.5360688302885],[0.0108538670569386,51.5361039962407],[0.0107554982499503,51.5361295144402],[0.0105545169587735,51.5361824219233],[0.0104777605170806,51.5362075691794]]]},"properties":{"FID":3,"SHAPE_Leng":230.828653663,"SHAPE_Area":2929.12584999,"Name":"H3 - West Ham C of E School Permit Area","Shape__Area":7561.130624294281,"Shape__Length":370.81477411695278}},{"type":"Feature","id":4,"geometry":{"type":"Polygon","coordinates":[[[0.0519372549792425,51.5380986398372],[0.0519996378521201,51.5381069913149],[0.0519856062143526,51.5381477042087],[0.0520276751439617,51.5381532634469],[0.0520316341857512,51.5381451007082],[0.0521085675617606,51.5381563451362],[0.0521067375565288,51.5381637512205],[0.0521061302485169,51.5381662798201],[0.0521728965567821,51.5381759034615],[0.0521910492431639,51.5381787334506],[0.0521942878076598,51.5381705833071],[0.0522050645507763,51.5381722923007],[0.0522531089822491,51.5381798962221],[0.052274904336972,51.5381835617651],[0.0523213768577775,51.5381908424336],[0.0523562211545785,51.53819607828],[0.0523976101333603,51.5382025485573],[0.052439699366782,51.5382085569322],[0.0524687396699293,51.5382129949897],[0.0524804574641036,51.5382147864178],[0.0525188347108521,51.538220661854],[0.0525420710064734,51.5382243021419],[0.0525979700954273,51.5382327667219],[0.0526154023780782,51.5382356092478],[0.0526814484360409,51.5382452452007],[0.0526908951377901,51.5382468784969],[0.0527605636928985,51.5382569006726],[0.0527631019199475,51.5382492124039],[0.0528457992475184,51.5382603555125],[0.0529168683332342,51.5382694538149],[0.0529836147378119,51.5382786277061],[0.0530466982709036,51.5382865167317],[0.0530539432122918,51.5382872892449],[0.053112704058946,51.5382952538693],[0.0531235916887132,51.5382968619181],[0.0531474974659111,51.5382999957693],[0.0531750873982217,51.5383036047169],[0.0531982833552608,51.5383063463031],[0.0532403727817303,51.5383123543886],[0.0532715745787913,51.5383167544251],[0.0533049175215343,51.5383206673458],[0.0533332173061019,51.5383246685097],[0.0533448254020482,51.5383262639303],[0.0533665804758412,51.5383290306981],[0.053414473994108,51.5383358364295],[0.0534340475028666,51.5383381917235],[0.0534522722243513,51.5383406965175],[0.0534949900503889,51.5383465676159],[0.0535595550993391,51.5383553297172],[0.0536277426533,51.5383644780215],[0.0536374778271112,51.5383404767647],[0.0536558457185211,51.5382878442754],[0.053666767873562,51.5382565740586],[0.0536802686300896,51.5382178756346],[0.05370197362441,51.5381554455457],[0.0537108669509551,51.5381287611813],[0.0537499412926568,51.5380197142406],[0.0537594943533481,51.5379916694068],[0.0537836765178578,51.537920203158],[0.0537954162922263,51.5378856362493],[0.0538096654113481,51.5378437052914],[0.0538527575756468,51.5377169261557],[0.0539135602390873,51.5375379845986],[0.0537861654565463,51.5375205203196],[0.0537242113074459,51.537512072364],[0.0533066236417515,51.537454812443],[0.0532939990696898,51.5374530549521],[0.0530016614112637,51.5374136560069],[0.0529902296490556,51.5374480285971],[0.0529675693608639,51.5375148817331],[0.0529641276921399,51.537524923938],[0.0529615693239039,51.5375321629258],[0.0529074828847784,51.5375479473214],[0.0528818384320118,51.5376189893288],[0.0528027646762745,51.5376082324983],[0.0527919318991797,51.5376398967528],[0.052723045352259,51.5376312098388],[0.0526595067874998,51.5376221595445],[0.0526555592949579,51.5376215991065],[0.0526526573213471,51.5376212002339],[0.0525859119418172,51.5376120261435],[0.0525822895283262,51.5376116398719],[0.0525177257061601,51.5376028772196],[0.0525133828529757,51.5376025035483],[0.0524451966448985,51.537593354582],[0.0523770104630444,51.5375842055758],[0.0523088041019285,51.537574607244],[0.0522391770922439,51.5375654833592],[0.0522359991898882,51.5375749813612],[0.0521699945996366,51.5375662437176],[0.0521494861967478,51.5376232569178],[0.0521243152344463,51.5376971591647],[0.0521208242172778,51.5377073910545],[0.052098396806142,51.5377698334736],[0.0520082749401877,51.5378982077776],[0.0520000809003679,51.537924430138],[0.0519923648664679,51.5379452484704],[0.0519539058093938,51.5380520358387],[0.0519372549792425,51.5380986398372]]]},"properties":{"FID":4,"SHAPE_Leng":429.590456471,"SHAPE_Area":9800.73234201,"Name":"H4 - Lathom Junior School Permit Area","Shape__Area":25301.006072998047,"Shape__Length":690.13497546948656}}]}